#aV2014 11 20  0  0  0.00000000     288 DD+AD WGS84 FIT  NGA
## 1819 345600.00000000   300.00000000 56981 0.0000000000000
+   31     1  2  4  5  6  7  8  9 10 11 12 13 14 15 16 17 18
+         19 20 21 22 23 24 25 26 27 28 29 30 31 32  0  0  0
+          0  0  0  0  0  0  0  0  0  0  0  0  0  0  0  0  0
+          0  0  0  0  0  0  0  0  0  0  0  0  0  0  0  0  0
+          0  0  0  0  0  0  0  0  0  0  0  0  0  0  0  0  0
++         2  2  2  2  2  2  2  2  2  2  2  2  2  2  2  2  2
++         2  2  2  2  2  2  2  2  2  2  2  2  2  2  0  0  0
++         0  0  0  0  0  0  0  0  0  0  0  0  0  0  0  0  0
++         0  0  0  0  0  0  0  0  0  0  0  0  0  0  0  0  0
++         0  0  0  0  0  0  0  0  0  0  0  0  0  0  0  0  0
%c cc cc ccc ccc cccc cccc cccc cccc ccccc ccccc ccccc ccccc
%c cc cc ccc ccc cccc cccc cccc cccc ccccc ccccc ccccc ccccc
%f  0.0000000  0.000000000  0.00000000000  0.000000000000000
%f  0.0000000  0.000000000  0.00000000000  0.000000000000000
%i    0    0    0    0      0      0      0      0         0
%i    0    0    0    0      0      0      0      0         0
/*      NGA, ST. LOUIS,MO.                                  
/*   EPHEMERIS COMPUTED FROM  1 DAYS OF DATA                
/*   EPOCHA SMOOTHER                                       
/* CCCCCCCCCCCCCCCCCCCCCCCCCCCCCCCCCCCCCCCCCCCCCCCCCCCCCCCCC
*  2014 11 20  2 20  0.00000000
P  1 -21810.406918 -11517.436445  10010.989924    -11.952831                    
V  1  -7441.914705 -10608.185938 -28113.208208      0.003928                    
P  2  10984.402580  21613.879193  11705.512320    531.107226                    
V  2 -12205.260813  -7765.339878  26042.601034      0.022399                    
P  4 -19333.316865 -18384.542637   -175.428485     -3.328853                    
V  4   2159.880406  -2536.745218 -31103.294096     -0.006880                    
P  5   3922.167683  22871.880152 -12808.876884   -315.956494                    
V  5  -6507.548071  15175.232570  25378.623536      0.045188                    
P  6  -1795.833805  17520.593622  19869.592745     12.962192                    
V  6 -19018.817456 -16663.998201  12947.937462      0.056593                    
P  7 -18694.116144   -576.066940 -18898.963383    414.374393                    
V  7 -16117.681124 -17883.729827  16055.039820      0.037276                    
P  8 -18947.202244 -18306.757221  -5155.553311     16.365356                    
V  8  -3243.794402  -5965.450571  31217.635530      0.001220                    
P  9 -25555.314534   7257.153935    242.777303     -9.478171                    
V  9   -502.716897  -2829.639447  31714.265214     -0.076452                    
P 10  -8722.660892  24599.520948   3074.682030   -150.602125                    
V 10  -2560.509191  -5223.965609  31278.636876     -0.016228                    
P 11 -23845.781647 -11886.368720   -862.926251   -537.649810                    
V 11   2500.470493  -4153.866603 -30017.447361     -0.027519                    
P 12  11895.336021   9827.643196  21575.700942    247.519892                    
V 12  -8115.705964  26234.403463  -7245.677939      0.028311                    
P 13 -12931.843707  14720.426907 -18194.769866    -62.127645                    
V 13 -22524.663786   2699.781010  18179.561468     -0.036709                    
P 14  15968.043173 -14368.157097  15759.783634    114.073250                    
V 14  19588.861689  -2205.150133 -22327.535533     -0.035919                    
P 15  20876.618178   5320.707088 -15805.980059   -215.586822                    
V 15 -18164.526693   8408.869162 -20937.827577     -0.022041                    
P 16  -1998.602233 -22737.102911 -13323.013338   -179.459759                    
V 16   6765.778928 -15602.821696  26069.863622      0.028727                    
P 17 -16831.792134  14421.752720  14733.056861   -138.670841                    
V 17 -18251.601324   2400.000640 -23863.782073     -0.024030                    
P 18  15354.399680 -14461.493580 -15487.889734    359.495646                    
V 18  -1816.145151  20879.839278 -20992.139770      0.026325                    
P 19 -16339.640040 -10050.432573 -18727.012306   -488.882798                    
V 19  22651.798119  -5359.329451 -16602.794458     -0.016819                    
P 20 -15639.312186  -2609.551629  21107.177516    258.495577                    
V 20   4759.672432 -26995.239524    258.030049      0.041850                    
P 21  15674.698415  -5704.362295 -20089.585035   -395.811771                    
V 21  19005.817148  19238.055571   8661.899230     -0.020486                    
P 22   9723.622305 -24010.352775  -5240.697788    288.658492                    
V 22   2336.441415   7732.338264 -30036.424095      0.038975                    
P 23 -24789.860006   -638.177846  10208.774854    -68.584222                    
V 23  11533.295107  -5739.454977  27583.625931     -0.027680                    
P 24  21725.601651  13772.696519   6847.218481    -38.736931                    
V 24   4448.199273   7963.306402 -29936.228381     -0.006125                    
P 25  15665.954709  -5196.841683  20699.398988     13.447828                    
V 25  -5538.550115  25873.789848  10783.406495     -0.017823                    
P 26   8273.399470  13651.849503 -21931.146680   -128.932839                    
V 26 -25734.567133   4997.752686  -6532.766322     -0.130384                    
P 27  -5255.068845 -14206.080860 -21833.341305     31.144094                    
V 27  26552.914801  -7793.003704  -1249.055019      0.028099                    
P 28 -12850.326140  21220.039748  -8694.078302    399.605185                    
V 28   1722.688144 -11971.470443 -29789.973344      0.026962                    
P 29  26070.099716  -4464.582228   2219.126109    574.352211                    
V 29  -2149.276723   3064.388247  31847.627161      0.024282                    
P 30 -11254.034139  10348.623197 -21715.298294    -81.245577                    
V 30 -18369.854651 -20588.957516   -339.751069     -0.021692                    
P 31    214.073612 -18379.785551  19200.681557    328.757785                    
V 31  17740.155100  16405.996241  15944.125018     -0.006122                    
P 32  -7643.917006 -18071.411116  18154.343190   -289.865106                    
V 32   8732.746342 -21190.354220 -16882.342812      0.089169                    
EOF
